{"type": "FeatureCollection", "features": [ {"type": "Feature", "properties": {"norad_id": 66625, "name": "STARLINK-35929", "group": "last-30-days", "lat": 4.656373852486526, "lon": 143.7411759040357, "alt_km": 447.51351486887415, "timestamp": "2025-12-22T14:45:56.095796+00:00", "meta": {"OBJECT_NAME": "STARLINK-35929", "OBJECT_ID": "2025-271J", "EPOCH": "2025-12-22T06:00:02.000160", "MEAN_MOTION": 15.39562589, "ECCENTRICITY": 6.61e-05, "INCLINATION": 53.1601, "RA_OF_ASC_NODE": 141.9616, "ARG_OF_PERICENTER": 94.2216, "MEAN_ANOMALY": 46.3854, "EPHEMERIS_TYPE": 0, "CLASSIFICATION_TYPE": "U", "NORAD_CAT_ID": 66625, "ELEMENT_SET_NO": 999, "REV_AT_EPOCH": 577, "BSTAR": 0.0018378068, "MEAN_MOTION_DOT": 0.00073685, "MEAN_MOTION_DDOT": 0}, "tle": {"line1": "1 66625U 25271J   25356.25002315  .00073685  00000+0  18378-2 0  9998", "line2": "2 66625  53.1601 141.9616 0000661  94.2216  46.3854 15.39562589  5770"}}, "geometry": {"type": "Point", "coordinates": [143.7411759040357, 4.656373852486526]}}, {"type": "Feature", "properties": {"norad_id": 66626, "name": "STARLINK-35902", "group": "last-30-days", "lat": -49.26917354991715, "lon": 79.86160860857426, "alt_km": 452.59815903343224, "timestamp": "2025-12-22T14:45:56.095806+00:00", "meta": {"OBJECT_NAME": "STARLINK-35902", "OBJECT_ID": "2025-271K", "EPOCH": "2025-12-22T02:36:40.026240", "MEAN_MOTION": 15.39638876, "ECCENTRICITY": 0.00013087, "INCLINATION": 53.1611, "RA_OF_ASC_NODE": 142.7821, "ARG_OF_PERICENTER": 86.5012, "MEAN_ANOMALY": 273.6143, "EPHEMERIS_TYPE": 0, "CLASSIFICATION_TYPE": "U", "NORAD_CAT_ID": 66626, "ELEMENT_SET_NO": 999, "REV_AT_EPOCH": 565, "BSTAR": 0.0011037916, "MEAN_MOTION_DOT": 0.00044034, "MEAN_MOTION_DDOT": 0}, "tle": {"line1": "1 66626U 25271K   25356.10879660  .00044034  00000+0  11038-2 0  9990", "line2": "2 66626  53.1611 142.7821 0001308  86.5012 273.6143 15.39638876  5652"}}, "geometry": {"type": "Point", "coordinates": [79.86160860857426, -49.26917354991715]}}, {"type": "Feature", "properties": {"norad_id": 66627, "name": "STARLINK-35904", "group": "last-30-days", "lat": -15.831835362489102, "lon": 128.0173020400188, "alt_km": 450.11557781012743, "timestamp": "2025-12-22T14:45:56.095816+00:00", "meta": {"OBJECT_NAME": "STARLINK-35904", "OBJECT_ID": "2025-271L", "EPOCH": "2025-12-22T00:00:00.998784", "MEAN_MOTION": 15.39600841, "ECCENTRICITY": 9.47e-05, "INCLINATION": 53.1593, "RA_OF_ASC_NODE": 143.192, "ARG_OF_PERICENTER": 83.5491, "MEAN_ANOMALY": 84.7794, "EPHEMERIS_TYPE": 0, "CLASSIFICATION_TYPE": "U", "NORAD_CAT_ID": 66627, "ELEMENT_SET_NO": 999, "REV_AT_EPOCH": 557, "BSTAR": 0.00033133, "MEAN_MOTION_DOT": 0.00012867, "MEAN_MOTION_DDOT": 0}, "tle": {"line1": "1 66627U 25271L   25356.00001156  .00012867  00000+0  33133-3 0  9997", "line2": "2 66627  53.1593 143.1920 0000947  83.5491  84.7794 15.39600841  5578"}}, "geometry": {"type": "Point", "coordinates": [128.0173020400188, -15.831835362489102]}}, {"type": "Feature", "properties": {"norad_id": 66628, "name": "STARLINK-35862", "group": "last-30-days", "lat": 51.722795537804366, "lon": -111.76420202922606, "alt_km": 424.78125933609044, "timestamp": "2025-12-22T14:45:56.095827+00:00", "meta": {"OBJECT_NAME": "STARLINK-35862", "OBJECT_ID": "2025-271M", "EPOCH": "2025-12-22T06:00:02.000160", "MEAN_MOTION": 15.45891907, "ECCENTRICITY": 0.00013239, "INCLINATION": 53.161, "RA_OF_ASC_NODE": 141.7862, "ARG_OF_PERICENTER": 86.5306, "MEAN_ANOMALY": 141.8319, "EPHEMERIS_TYPE": 0, "CLASSIFICATION_TYPE": "U", "NORAD_CAT_ID": 66628, "ELEMENT_SET_NO": 999, "REV_AT_EPOCH": 577, "BSTAR": -0.036717254, "MEAN_MOTION_DOT": -0.01626473, "MEAN_MOTION_DDOT": 0}, "tle": {"line1": "1 66628U 25271M   25356.25002315 -.01626473  00000+0 -36717-1 0  9999", "line2": "2 66628  53.1610 141.7862 0001323  86.5306 141.8319 15.45891907  5777"}}, "geometry": {"type": "Point", "coordinates": [-111.76420202922606, 51.722795537804366]}}, {"type": "Feature", "properties": {"norad_id": 66629, "name": "STARLINK-35956", "group": "last-30-days", "lat": 25.918715330948352, "lon": -61.41350384925375, "alt_km": 414.90310248505284, "timestamp": "2025-12-22T14:45:56.095837+00:00", "meta": {"OBJECT_NAME": "STARLINK-35956", "OBJECT_ID": "2025-271N", "EPOCH": "2025-12-18T16:00:00.999936", "MEAN_MOTION": 15.49463337, "ECCENTRICITY": 5.424e-05, "INCLINATION": 53.1591, "RA_OF_ASC_NODE": 158.846, "ARG_OF_PERICENTER": 63.7637, "MEAN_ANOMALY": 4.4961, "EPHEMERIS_TYPE": 0, "CLASSIFICATION_TYPE": "U", "NORAD_CAT_ID": 66629, "ELEMENT_SET_NO": 999, "REV_AT_EPOCH": 519, "BSTAR": 0.0002238515, "MEAN_MOTION_DOT": 0.00012088, "MEAN_MOTION_DDOT": 0}, "tle": {"line1": "1 66629U 25271N   25352.66667824  .00012088  00000+0  22385-3 0  9999", "line2": "2 66629  53.1591 158.8460 0000542  63.7637   4.4961 15.49463337  5194"}}, "geometry": {"type": "Point", "coordinates": [-61.41350384925375, 25.918715330948352]}}, {"type": "Feature", "properties": {"norad_id": 66630, "name": "STARLINK-35949", "group": "last-30-days", "lat": 50.386530830139336, "lon": -104.88913864339361, "alt_km": 421.7586335467877, "timestamp": "2025-12-22T14:45:56.095850+00:00", "meta": {"OBJECT_NAME": "STARLINK-35949", "OBJECT_ID": "2025-271P", "EPOCH": "2025-12-21T22:47:31.329024", "MEAN_MOTION": 15.45595472, "ECCENTRICITY": 0.00011644, "INCLINATION": 53.161, "RA_OF_ASC_NODE": 143.2062, "ARG_OF_PERICENTER": 122.637, "MEAN_ANOMALY": 237.475, "EPHEMERIS_TYPE": 0, "CLASSIFICATION_TYPE": "U", "NORAD_CAT_ID": 66630, "ELEMENT_SET_NO": 999, "REV_AT_EPOCH": 563, "BSTAR": 0.001873812, "MEAN_MOTION_DOT": 0.00092272, "MEAN_MOTION_DDOT": 0}, "tle": {"line1": "1 66630U 25271P   25355.94966816  .00092272  00000+0  18738-2 0  9997", "line2": "2 66630  53.1610 143.2062 0001164 122.6370 237.4750 15.45595472  5639"}}, "geometry": {"type": "Point", "coordinates": [-104.88913864339361, 50.386530830139336]}}, {"type": "Feature", "properties": {"norad_id": 66631, "name": "STARLINK-35965", "group": "last-30-days", "lat": 49.7977384586672, "lon": -102.47070078468333, "alt_km": 422.42103988223516, "timestamp": "2025-12-22T14:45:56.095864+00:00", "meta": {"OBJECT_NAME": "STARLINK-35965", "OBJECT_ID": "2025-271Q", "EPOCH": "2025-12-22T06:00:02.000160", "MEAN_MOTION": 15.45484704, "ECCENTRICITY": 0.00011533, "INCLINATION": 53.1607, "RA_OF_ASC_NODE": 141.7745, "ARG_OF_PERICENTER": 71.2183, "MEAN_ANOMALY": 162.954, "EPHEMERIS_TYPE": 0, "CLASSIFICATION_TYPE": "U", "NORAD_CAT_ID": 66631, "ELEMENT_SET_NO": 999, "REV_AT_EPOCH": 577, "BSTAR": 0.0018903727, "MEAN_MOTION_DOT": 0.00092744, "MEAN_MOTION_DDOT": 0}, "tle": {"line1": "1 66631U 25271Q   25356.25002315  .00092744  00000+0  18904-2 0  9997", "line2": "2 66631  53.1607 141.7745 0001153  71.2183 162.9540 15.45484704  5775"}}, "geometry": {"type": "Point", "coordinates": [-102.47070078468333, 49.7977384586672]}}, {"type": "Feature", "properties": {"norad_id": 66632, "name": "STARLINK-35973", "group": "last-30-days", "lat": -42.3516938704083, "lon": 3.605441405723762, "alt_km": 452.1565441482144, "timestamp": "2025-12-22T14:45:56.095875+00:00", "meta": {"OBJECT_NAME": "STARLINK-35973", "OBJECT_ID": "2025-271R", "EPOCH": "2025-12-22T02:50:02.397120", "MEAN_MOTION": 15.39647076, "ECCENTRICITY": 0.00011697, "INCLINATION": 53.1604, "RA_OF_ASC_NODE": 142.8376, "ARG_OF_PERICENTER": 83.8828, "MEAN_ANOMALY": 276.231, "EPHEMERIS_TYPE": 0, "CLASSIFICATION_TYPE": "U", "NORAD_CAT_ID": 66632, "ELEMENT_SET_NO": 999, "REV_AT_EPOCH": 561, "BSTAR": 0.0014928757, "MEAN_MOTION_DOT": 0.00059837, "MEAN_MOTION_DDOT": 0}, "tle": {"line1": "1 66632U 25271R   25356.11808330  .00059837  00000+0  14929-2 0  9993", "line2": "2 66632  53.1604 142.8376 0001169  83.8828 276.2310 15.39647076  5610"}}, "geometry": {"type": "Point", "coordinates": [3.605441405723762, -42.3516938704083]}}, {"type": "Feature", "properties": {"norad_id": 66633, "name": "STARLINK-35948", "group": "last-30-days", "lat": -43.38834533336854, "lon": 5.61608898134274, "alt_km": 452.0809160462468, "timestamp": "2025-12-22T14:45:56.095885+00:00", "meta": {"OBJECT_NAME": "STARLINK-35948", "OBJECT_ID": "2025-271S", "EPOCH": "2025-12-22T02:49:33.656160", "MEAN_MOTION": 15.39644062, "ECCENTRICITY": 9.478e-05, "INCLINATION": 53.1609, "RA_OF_ASC_NODE": 142.835, "ARG_OF_PERICENTER": 100.4594, "MEAN_ANOMALY": 259.6518, "EPHEMERIS_TYPE": 0, "CLASSIFICATION_TYPE": "U", "NORAD_CAT_ID": 66633, "ELEMENT_SET_NO": 999, "REV_AT_EPOCH": 565, "BSTAR": 0.0006238512, "MEAN_MOTION_DOT": 0.00024654, "MEAN_MOTION_DDOT": 0}, "tle": {"line1": "1 66633U 25271S   25356.11775065  .00024654  00000+0  62385-3 0  9991", "line2": "2 66633  53.1609 142.8350 0000947 100.4594 259.6518 15.39644062  5658"}}, "geometry": {"type": "Point", "coordinates": [5.61608898134274, -43.38834533336854]}}, {"type": "Feature", "properties": {"norad_id": 66634, "name": "STARLINK-35967", "group": "last-30-days", "lat": -52.82927210029747, "lon": 41.87217168854937, "alt_km": 452.8243707002139, "timestamp": "2025-12-22T14:45:56.095895+00:00", "meta": {"OBJECT_NAME": "STARLINK-35967", "OBJECT_ID": "2025-271T", "EPOCH": "2025-12-22T02:42:52.789536", "MEAN_MOTION": 15.39642198, "ECCENTRICITY": 0.00015916, "INCLINATION": 53.1576, "RA_OF_ASC_NODE": 142.8033, "ARG_OF_PERICENTER": 55.2711, "MEAN_ANOMALY": 304.8444, "EPHEMERIS_TYPE": 0, "CLASSIFICATION_TYPE": "U", "NORAD_CAT_ID": 66634, "ELEMENT_SET_NO": 999, "REV_AT_EPOCH": 561, "BSTAR": 0.00097373977, "MEAN_MOTION_DOT": 0.00038776, "MEAN_MOTION_DDOT": 0}, "tle": {"line1": "1 66634U 25271T   25356.11311099  .00038776  00000+0  97374-3 0  9991", "line2": "2 66634  53.1576 142.8033 0001591  55.2711 304.8444 15.39642198  5619"}}, "geometry": {"type": "Point", "coordinates": [41.87217168854937, -52.82927210029747]}}]}